COMMENT,ORIGINATOR,NORAD_CAT_ID,OBJECT_NAME,OBJECT_TYPE,CLASSIFICATION_TYPE,INTLDES,EPOCH,EPOCH_MICROSECONDS,MEAN_MOTION,ECCENTRICITY,INCLINATION,RA_OF_ASC_NODE,ARG_OF_PERICENTER,MEAN_ANOMALY,EPHEMERIS_TYPE,ELEMENT_SET_NO,REV_AT_EPOCH,BSTAR,MEAN_MOTION_DOT,MEAN_MOTION_DDOT,FILE,TLE_LINE0,TLE_LINE1,TLE_LINE2,OBJECT_ID,OBJECT_NUMBER,SEMIMAJOR_AXIS,PERIOD,APOGEE,PERIGEE,DECAYED
"GENERATED VIA SPACETRACK.ORG API","18 SPCS","48888","SPACEBEE-103","PAYLOAD","U","21059K","2023-12-06 20:07:47","314848","15.53411549","0.0003596","97.6086","124.6083","341.6876","18.4247","0","999","13597","0.0012801","0.00081639","0","4126527","0 SPACEBEE-103","1 48888U 21059K   23340.83874207  .00081639  00000-0  12801-2 0  9995","2 48888  97.6086 124.6083 0003596 341.6876  18.4247 15.53411549135975","2021-059K","48888","6784.911","92.699","409.216","404.336","0"
"GENERATED VIA SPACETRACK.ORG API","18 SPCS","48888","SPACEBEE-103","PAYLOAD","U","21059K","2023-12-07 08:29:50","777952","15.53493981","0.0003642","97.6085","125.1547","339.3997","20.7108","0","999","13605","0.0010518","0.00067139","0","4127044","0 SPACEBEE-103","1 48888U 21059K   23341.35405993  .00067139  00000-0  10518-2 0  9997","2 48888  97.6085 125.1547 0003642 339.3997  20.7108 15.53493981136057","2021-059K","48888","6784.671","92.694","409.007","404.065","0"
"GENERATED VIA SPACETRACK.ORG API","18 SPCS","48888","SPACEBEE-103","PAYLOAD","U","21059K","2023-12-07 08:29:50","777952","15.53493981","0.0003642","97.6085","125.1547","339.3997","20.7108","0","999","13605","0.0010518","0.00067139","0","4127218","0 SPACEBEE-103","1 48888U 21059K   23341.35405993  .00067139  00000-0  10518-2 0  9997","2 48888  97.6085 125.1547 0003642 339.3997  20.7108 15.53493981136057","2021-059K","48888","6784.671","92.694","409.007","404.065","0"
"GENERATED VIA SPACETRACK.ORG API","18 SPCS","48888","SPACEBEE-103","PAYLOAD","U","21059K","2023-12-08 09:13:51","296736","15.5364066","0.0003672","97.6076","126.2474","336.1573","23.9509","0","999","13621","0.0010042","0.00064415","0","4128539","0 SPACEBEE-103","1 48888U 21059K   23342.38462149  .00064415  00000-0  10042-2 0  9993","2 48888  97.6076 126.2474 0003672 336.1573  23.9509 15.53640660136212","2021-059K","48888","6784.244","92.686","408.600","403.618","0"
"GENERATED VIA SPACETRACK.ORG API","18 SPCS","48888","SPACEBEE-103","PAYLOAD","U","21059K","2023-12-08 09:13:51","296736","15.5364066","0.0003672","97.6076","126.2474","336.1573","23.9509","0","999","13621","0.0010042","0.00064415","0","4128726","0 SPACEBEE-103","1 48888U 21059K   23342.38462149  .00064415  00000-0  10042-2 0  9993","2 48888  97.6076 126.2474 0003672 336.1573  23.9509 15.53640660136212","2021-059K","48888","6784.244","92.686","408.600","403.618","0"
"GENERATED VIA SPACETRACK.ORG API","18 SPCS","48888","SPACEBEE-103","PAYLOAD","U","21059K","2023-12-09 08:24:59","93280","15.53779988","0.000377","97.6078","127.2729","334.2988","25.8076","0","999","13636","0.00097043","0.00062546","0","4130144","0 SPACEBEE-103","1 48888U 21059K   23343.35068395  .00062546  00000-0  97043-3 0  9996","2 48888  97.6078 127.2729 0003770 334.2988  25.8076 15.53779988136368","2021-059K","48888","6783.838","92.677","408.261","403.146","0"
"GENERATED VIA SPACETRACK.ORG API","18 SPCS","48888","SPACEBEE-103","PAYLOAD","U","21059K","2023-12-09 08:24:59","93280","15.53779988","0.000377","97.6078","127.2729","334.2988","25.8076","0","999","13636","0.00097043","0.00062546","0","4130247","0 SPACEBEE-103","1 48888U 21059K   23343.35068395  .00062546  00000-0  97043-3 0  9996","2 48888  97.6078 127.2729 0003770 334.2988  25.8076 15.53779988136368","2021-059K","48888","6783.838","92.677","408.261","403.146","0"
"GENERATED VIA SPACETRACK.ORG API","18 SPCS","48888","SPACEBEE-103","PAYLOAD","U","21059K","2023-12-09 20:46:52","314528","15.53848701","0.0003804","97.6066","127.8188","334.1047","26.0015","0","999","13644","0.0010543","0.00068178","0","4130742","0 SPACEBEE-103","1 48888U 21059K   23343.86588327  .00068178  00000-0  10543-2 0  9990","2 48888  97.6066 127.8188 0003804 334.1047  26.0015 15.53848701136448","2021-059K","48888","6783.638","92.673","408.084","402.923","0"
"GENERATED VIA SPACETRACK.ORG API","18 SPCS","48888","SPACEBEE-103","PAYLOAD","U","21059K","2023-12-09 20:46:52","314528","15.53848701","0.0003804","97.6066","127.8188","334.1047","26.0015","0","999","13644","0.0010543","0.00068178","0","4131588","0 SPACEBEE-103","1 48888U 21059K   23343.86588327  .00068178  00000-0  10543-2 0  9990","2 48888  97.6066 127.8188 0003804 334.1047  26.0015 15.53848701136448","2021-059K","48888","6783.638","92.673","408.084","402.923","0"
"GENERATED VIA SPACETRACK.ORG API","18 SPCS","48888","SPACEBEE-103","PAYLOAD","U","21059K","2023-12-10 21:30:32","653728","15.53991266","0.0003891","97.6078","128.9133","330.095","30.008","0","999","13660","0.0010293","0.00066894","0","4132333","0 SPACEBEE-103","1 48888U 21059K   23344.89621127  .00066894  00000-0  10293-2 0  9995","2 48888  97.6078 128.9133 0003891 330.0950  30.0080 15.53991266136607","2021-059K","48888","6783.223","92.665","407.728","402.449","0"
"GENERATED VIA SPACETRACK.ORG API","18 SPCS","48888","SPACEBEE-103","PAYLOAD","U","21059K","2023-12-10 21:30:32","653728","15.53991266","0.0003891","97.6078","128.9133","330.095","30.008","0","999","13660","0.0010293","0.00066894","0","4132688","0 SPACEBEE-103","1 48888U 21059K   23344.89621127  .00066894  00000-0  10293-2 0  9995","2 48888  97.6078 128.9133 0003891 330.0950  30.0080 15.53991266136607","2021-059K","48888","6783.223","92.665","407.728","402.449","0"
"GENERATED VIA SPACETRACK.ORG API","18 SPCS","48888","SPACEBEE-103","PAYLOAD","U","21059K","2023-12-11 08:19:36","512832","15.540525","0.0003793","97.608","129.3916","328.4323","31.6702","0","999","13667","0.00093355","0.00060748","0","4133233","0 SPACEBEE-103","1 48888U 21059K   23345.34695038  .00060748  00000-0  93355-3 0  9991","2 48888  97.6080 129.3916 0003793 328.4323  31.6702 15.54052500136675","2021-059K","48888","6783.045","92.661","407.483","402.337","0"
"GENERATED VIA SPACETRACK.ORG API","18 SPCS","48888","SPACEBEE-103","PAYLOAD","U","21059K","2023-12-11 22:14:05","59680","15.54126521","0.0003852","97.6079","130.0075","327.6715","32.4301","0","999","13676","0.00099594","0.00065025","0","4133725","0 SPACEBEE-103","1 48888U 21059K   23345.92644745  .00065025  00000-0  99594-3 0  9998","2 48888  97.6079 130.0075 0003852 327.6715  32.4301 15.54126521136769","2021-059K","48888","6782.830","92.657","407.308","402.082","0"
"GENERATED VIA SPACETRACK.ORG API","18 SPCS","48888","SPACEBEE-103","PAYLOAD","U","21059K","2023-12-11 22:14:05","59680","15.54126521","0.0003852","97.6079","130.0075","327.6715","32.4301","0","999","13676","0.00099594","0.00065025","0","4134080","0 SPACEBEE-103","1 48888U 21059K   23345.92644745  .00065025  00000-0  99594-3 0  9998","2 48888  97.6079 130.0075 0003852 327.6715  32.4301 15.54126521136769","2021-059K","48888","6782.830","92.657","407.308","402.082","0"
"GENERATED VIA SPACETRACK.ORG API","18 SPCS","48888","SPACEBEE-103","PAYLOAD","U","21059K","2023-12-12 09:03:05","600160","15.5418527","0.0003761","97.6081","130.4859","325.6997","34.4013","0","999","13683","0.00097655","0.00063883","0","4134660","0 SPACEBEE-103","1 48888U 21059K   23346.37714815  .00063883  00000-0  97655-3 0  9990","2 48888  97.6081 130.4859 0003761 325.6997  34.4013 15.54185270136831","2021-059K","48888","6782.659","92.653","407.075","401.973","0"
"GENERATED VIA SPACETRACK.ORG API","18 SPCS","48888","SPACEBEE-103","PAYLOAD","U","21059K","2023-12-12 21:24:47","65824","15.54269776","0.0003827","97.6084","131.0334","325.6996","34.401","0","999","13691","0.0013905","0.00091604","0","4134943","0 SPACEBEE-103","1 48888U 21059K   23346.89221141  .00091604  00000-0  13905-2 0  9999","2 48888  97.6084 131.0334 0003827 325.6996  34.4010 15.54269776136911","2021-059K","48888","6782.413","92.648","406.874","401.683","0"
"GENERATED VIA SPACETRACK.ORG API","18 SPCS","48888","SPACEBEE-103","PAYLOAD","U","21059K","2023-12-12 22:57:29","570400","15.54280275","0.0003831","97.6083","131.1022","325.4018","34.6985","0","999","13692","0.0013675","0.00090105","0","4135141","0 SPACEBEE-103","1 48888U 21059K   23346.95659225  .00090105  00000-0  13675-2 0  9993","2 48888  97.6083 131.1022 0003831 325.4018  34.6985 15.54280275136924","2021-059K","48888","6782.383","92.647","406.846","401.649","0"
"GENERATED VIA SPACETRACK.ORG API","18 SPCS","48888","SPACEBEE-103","PAYLOAD","U","21059K","2023-12-13 09:46:26","105376","15.54346519","0.0003743","97.6088","131.5804","323.4242","36.6755","0","999","13699","0.00094092","0.00061894","0","4135343","0 SPACEBEE-103","1 48888U 21059K   23347.40724659  .00061894  00000-0  94092-3 0  9994","2 48888  97.6088 131.5804 0003743 323.4242  36.6755 15.54346519136998","2021-059K","48888","6782.190","92.643","406.593","401.516","0"
"GENERATED VIA SPACETRACK.ORG API","18 SPCS","48888","SPACEBEE-103","PAYLOAD","U","21059K","2023-12-13 09:46:26","105376","15.54346519","0.0003743","97.6088","131.5804","323.4242","36.6755","0","999","13699","0.00094092","0.00061894","0","4135433","0 SPACEBEE-103","1 48888U 21059K   23347.40724659  .00061894  00000-0  94092-3 0  9994","2 48888  97.6088 131.5804 0003743 323.4242  36.6755 15.54346519136998","2021-059K","48888","6782.190","92.643","406.593","401.516","0"
"GENERATED VIA SPACETRACK.ORG API","18 SPCS","48888","SPACEBEE-103","PAYLOAD","U","21059K","2023-12-13 22:08:02","801760","15.54432663","0.0003814","97.6085","132.1284","323.0434","37.0556","0","999","13707","0.0011668","0.00077167","0","4135688","0 SPACEBEE-103","1 48888U 21059K   23347.92225465  .00077167  00000-0  11668-2 0  9999","2 48888  97.6085 132.1284 0003814 323.0434  37.0556 15.54432663137072","2021-059K","48888","6781.939","92.638","406.391","401.218","0"
